[{"OBJECT_NAME":"LEMUR-2-GREENBERG","OBJECT_ID":"2017-042N","EPOCH":"2026-03-09T11:05:17.256192","MEAN_MOTION":15.27971352,"ECCENTRICITY":0.00091572,"INCLINATION":97.3781,"RA_OF_ASC_NODE":249.8007,"ARG_OF_PERICENTER":4.0119,"MEAN_ANOMALY":356.1192,"EPHEMERIS_TYPE":0,"CLASSIFICATION_TYPE":"U","NORAD_CAT_ID":42837,"ELEMENT_SET_NO":999,"REV_AT_EPOCH":47314,"BSTAR":0.00072539172,"MEAN_MOTION_DOT":0.00019778,"MEAN_MOTION_DDOT":0},{"OBJECT_NAME":"STARLINK-30483","OBJECT_ID":"2023-147B","EPOCH":"2026-03-09T07:50:44.504736","MEAN_MOTION":15.27496247,"ECCENTRICITY":0.00011429,"INCLINATION":42.9991,"RA_OF_ASC_NODE":181.673,"ARG_OF_PERICENTER":141.0292,"MEAN_ANOMALY":219.0642,"EPHEMERIS_TYPE":0,"CLASSIFICATION_TYPE":"U","NORAD_CAT_ID":57914,"ELEMENT_SET_NO":999,"REV_AT_EPOCH":13825,"BSTAR":0.00063040794,"MEAN_MOTION_DOT":0.00017081,"MEAN_MOTION_DDOT":0}]
